ONEWEB-0199             
1 48234U 21031AA  25165.99314002  .00000205  00000+0  51800-3 0  9998
2 48234  87.9036   2.7444 0001752  92.2769 267.8561 13.14502652200025
ONEWEB-0203             
1 48235U 21031AB  25165.98362078  .00000143  00000+0  35031-3 0  9993
2 48235  87.9029   2.7485 0001949  96.2233 263.9118 13.14503121200039
ONEWEB-0197             
1 48236U 21031AC  25165.80679785 -.00000218  00000+0 -62291-3 0  9994
2 48236  87.9021   2.7887 0001665  79.7393 280.3924 13.14503082199925
ONEWEB-0194             
1 48237U 21031AD  25165.78539254  .00000030  00000+0  46103-4 0  9993
2 48237  87.9039   2.7963 0001744  95.8437 264.2892 13.14501289200099
ONEWEB-0193             
1 48238U 21031AE  25165.80124833 -.00000130  00000+0 -38589-3 0  9991
2 48238  87.9037   2.8010 0001968  91.4253 268.7102 13.14502061200045
ONEWEB-0191             
1 48239U 21031AF  25165.96458010 -.00000403  00000+0 -11210-2 0  9990
2 48239  87.9025   2.7402 0001973  96.5128 263.6227 13.14502172199929
ONEWEB-0195             
1 48240U 21031AG  25165.94160090 -.00000012  00000+0 -66812-4 0  9994
2 48240  87.9035   2.7434 0002255  87.7223 272.4165 13.14502998199902
ONEWEB-0201             
1 48241U 21031AH  25165.77762996  .00000760  00000+0  20142-2 0  9991
2 48241  87.9041   2.8227 0002123  81.7468 278.3903 13.14502417200117
